#cP2020 10 27  0  0  0.00000000      96 ORBIT IGb14 HLM  IGS
## 2129 172800.00000000   900.00000000 59149 0.0000000000000
+   31   G01G02G03G04G05G06G07G08G09G10G11G12G13G15G16G17G18
+        G19G20G21G22G23G24G25G26G27G28G29G30G31G32  0  0  0
+          0  0  0  0  0  0  0  0  0  0  0  0  0  0  0  0  0
+          0  0  0  0  0  0  0  0  0  0  0  0  0  0  0  0  0
+          0  0  0  0  0  0  0  0  0  0  0  0  0  0  0  0  0
++         2  2  1  2  1  2  2  2  2  1  2  2  2  2  2  2  2
++         2  1  2  1  2  4  1  2  2  2  2  2  2  2  0  0  0
++         0  0  0  0  0  0  0  0  0  0  0  0  0  0  0  0  0
++         0  0  0  0  0  0  0  0  0  0  0  0  0  0  0  0  0
++         0  0  0  0  0  0  0  0  0  0  0  0  0  0  0  0  0
%c G  cc GPS ccc cccc cccc cccc cccc ccccc ccccc ccccc ccccc
%c cc cc ccc ccc cccc cccc cccc cccc ccccc ccccc ccccc ccccc
%f  1.2500000  1.025000000  0.00000000000  0.000000000000000
%f  0.0000000  0.000000000  0.00000000000  0.000000000000000
%i    0    0    0    0      0      0      0      0         0
%i    0    0    0    0      0      0      0      0         0
/* FINAL ORBIT COMBINATION FROM WEIGHTED AVERAGE OF:        
/* cod emr esa gfz grg jpl mit ngs sio                      
/* REFERENCED TO IGS TIME (IGST) AND TO WEIGHTED MEAN POLE: 
/* PCV:IGS14_2129 OL/AL:FES2004  NONE     Y  ORB:CMB CLK:CMB
*  2020 10 27 14 15  0.00000000
PG01   -720.306153  15499.105710 -21747.155761    812.753981  4  5  2  39       
PG02  19563.172430 -15481.419717   9723.858930   -534.981049  7  6  3  95       
PG03   9294.614676  20873.990876 -13706.028194   -337.555455  5  4  6  66       
PG04    258.605176  25079.521406   8679.414951   -149.485914  5  6  2  62       
PG05  10238.853454 -11380.574926  21553.864997    -24.411023  6  4     72       
PG06  25615.575369  -5201.957961  -4769.480208   -335.656699  7  6  4 101       
PG07  16699.680247   8904.384627  19148.294444   -402.093915  3  4  2  78       
PG08  -5753.851302  25744.409096   1327.451625    -52.934723  6  6  3  79       
PG09   9412.485652  17499.284245  17554.164445   -305.778809  3     3  63       
PG10 -22303.715100  -9379.128060 -11159.416346   -490.069847  5     3  71       
PG11  -7250.980209  22232.878202 -13383.061280   -125.283993  5  5     91       
PG12  -5825.962605 -20978.636119 -15549.043852     48.451557  7  5  4  84       
PG13  13273.656843 -21385.793691   8166.532751     58.883735  5  4  4  97       
PG15   2455.219114 -26239.842623     58.028402   -194.086713  6  4  4 102       
PG16 -10248.319714  10654.277494  21834.384532   -228.156870  6  4  3  77       
PG17  15105.688612  -1469.550065 -21361.704089    345.699225  7  5  5  84       
PG18 -17549.177553  -7853.100400  18338.102447    313.227016  5  6  3  72       
PG19  16288.757186  -7981.007963 -19660.152393    -86.229544  7  5  4  86       
PG20 -21885.712620 -15270.091615    835.166765    526.260250  4  2  4  31       
PG21 -14600.875689  16583.350931 -13771.017327     62.128793  4  6  4 103       
PG22   2414.581430  18792.852555 -18475.685071   -738.012998  5  3  5  75       
PG23 -21062.193393 -16108.205834  -1778.481601     92.229968  7  6  4  68       
PG24   3725.697971 -17330.844249 -19885.530211    -20.317082  9  8  8  81       
PG25 -16606.152454 -20142.909265  -5855.186892     12.118439  4  1  3 102       
PG26 -19358.056700   1178.362866  18218.086620    302.131213  5  5  4  61       
PG27 -12282.696499  20011.150721  11927.354833   -427.905205  8  7  4  57       
PG28  20842.500136  10073.415153 -12288.303979    662.761663  4  7  3  92       
PG29  -5850.773175 -19874.131159  16556.589163   -224.227325  5  4  2  91       
PG30  23569.047351   2314.899951  12288.882844   -325.000734  8  5  6  96       
PG31 -25998.684596   6085.046189  -2525.461322    -77.625754  5  5  3  49       
PG32 -15607.173000   1479.047217 -21334.432086    361.848777  4  6  2  77       
*  2020 10 27 14 30  0.00000000
PG01  -2992.664826  16254.475517 -20950.474098    812.751404  4  4  1  76       
PG02  20460.440018 -15641.692044   7084.798558   -534.985323  7  6  3 102       
PG03   7900.554504  19936.430240 -15817.070687   -337.564577  5  4  7  90       
PG04   -149.448935  25853.469248   5990.111874   -149.489320  5  7  3  72       
PG05  12194.930131  -9845.457316  21308.548725    -24.411811  6  4     33       
PG06  25015.468400  -4780.984131  -7548.831741   -335.658574  6  6  4  87       
PG07  14673.772174   9729.046227  20345.683463   -402.100938  2  4  2  82       
PG08  -5953.864907  25393.322068   4192.321248    -52.935604  6  7  3  81       
PG09   8944.389336  19368.535919  15747.978773   -305.783299  3     3  75       
PG10 -23054.313925 -10253.074978  -8616.681571   -490.078348  5     3  67       
PG11  -8360.087319  23032.370501 -11148.071858   -125.274661  6  5     90       
PG12  -4408.177129 -19798.054849 -17461.088819     48.447036  7  6  4 104       
PG13  13162.753619 -20267.060789  10757.810496     58.887285  6  4  4 105       
PG15   2819.025225 -26011.513640   2862.803339   -194.084614  6  4  4 108       
PG16 -12055.333048   8874.180120  21748.171860   -228.161782  5  4  3  68       
PG17  14559.476512   1026.930245 -21758.556613    345.703688  7  6  5  72       
PG18 -15528.577548  -8672.166889  19732.686738    313.231863  5  5  3  65       
PG19  15755.194659  -5785.822595 -20851.410203    -86.225050  7  6  5  92       
PG20 -21502.432189 -15393.336728   3609.218113    526.260011  4  2  4  33       
PG21 -16132.314431  16992.302466 -11463.777692     62.132267  4  6  4  95       
PG22    496.880489  17653.538501 -19683.902732   -738.008705  5  4  4  86       
PG23 -20935.424795 -16328.598878   1077.112447     92.234966  7  6  3  82       
PG24   5781.754091 -18078.545739 -18642.585168    -20.317706  9  8  9  85       
PG25 -15863.979168 -19801.936921  -8541.899860     12.123977  4  2  3  60       
PG26 -20839.251850   -164.827806  16570.888700    302.136731  5  5  4  87       
PG27 -12216.073355  18471.487519  14256.858704   -427.912879  7  7  4  73       
PG28  21646.759695  11174.318841  -9796.514147    662.757415  4  7  3 112       
PG29  -5297.382250 -21570.906656  14491.219323   -224.234442  5  4  2  94       
PG30  22202.443594   3023.477184  14473.517468   -325.006901  7  5  6  97       
PG31 -25659.325848   5730.808019  -5300.980140    -77.628511  4  5  4  77       
PG32 -15242.846344   -973.949641 -21637.595381    361.852074  4  6  1  69       
*  2020 10 27 14 45  0.00000000
PG01  -5122.274031  17092.951094 -19798.325113    812.748952  3  4  2  78       
PG02  21084.395605 -15704.255826   4325.905390   -534.989613  7  7  3  99       
PG03   6278.743074  18942.683670 -17658.559243   -337.573739  5  4  7  70       
PG04   -472.716064  26340.111144   3197.461799   -149.492800  5  7  3  83       
PG05  14184.055170  -8440.276820  20692.071448    -24.412426  6  4  1  92       
PG06  24157.757869  -4202.415871 -10198.300359   -335.660452  5  6  4  72       
PG07  12586.118567  10704.656257  21206.252268   -402.107992  2  3  3  81       
PG08  -6141.743450  24732.228384   6983.860184    -52.937216  6  7  4  67       
PG09   8592.584501  21039.644958  13669.453993   -305.787840  4     4  78       
PG10 -23611.999105 -10910.492021  -5927.321729   -490.086763  5     3  44       
PG11  -9271.488216  23682.514589  -8728.799041   -125.265118  6  5     83       
PG12  -2776.783684 -18569.636838 -19079.436210     48.442357  6  6  4  94       
PG13  13044.435617 -18866.960593  13161.672086     58.890611  6  4  4  97       
PG15   3194.755927 -25483.091607   5616.916057   -194.082136  6  5  4 107       
PG16 -13928.620910   7218.476430  21280.998979   -228.166161  5  4  4  59       
PG17  14146.011329   3572.472019 -21765.440071    345.708913  6  6  5  62       
PG18 -13425.523362  -9650.239845  20787.919966    313.236749  5  4  3  69       
PG19  15321.709154  -3454.567222 -21692.118985    -86.220519  7  7  5  93       
PG20 -20854.292826 -15389.151549   6322.036318    526.259814  4  2  4  86       
PG21 -17389.481508  17348.552334  -8948.239307     62.135484  5  6  5  91       
PG22  -1575.122055  16544.279118 -20548.979973   -738.004314  4  4  4  83       
PG23 -20555.731837 -16371.511291   3914.189325     92.240010  6  6  3  80       
PG24   7663.497816 -18852.906971 -17080.456592    -20.317688  9  9  9  94       
PG25 -14869.481567 -19327.093380 -11085.065545     12.129504  4  3  4  78       
PG26 -22217.731603  -1317.972395  14640.591728    302.142257  4  6  4  68       
PG27 -12205.103044  16679.808342  16334.765329   -427.920561  7  7  4  75       
PG28  22286.615217  12029.132484  -7130.178118    662.752981  4  6  3  88       
PG29  -4883.873968 -23050.707161  12175.357793   -224.241333  5  5  2  92       
PG30  20656.914121   3885.025078  16412.267153   -325.013033  6  4  6  74       
PG31 -25056.224990   5243.372400  -7987.883234    -77.630311  4  5  4  82       
PG32 -15003.482406  -3453.903664 -21565.297576    361.855376  4  6  1  85       
EOF
